{"type": "FeatureCollection", "features": [ {"type": "Feature", "properties": {"norad_id": 37278, "name": "COSMOS 2251 DEB", "group": "cosmos-2251-debris", "lat": 72.99597341926362, "lon": 71.83844194597906, "alt_km": 859.8860694075383, "timestamp": "2025-12-06T22:38:43.126605+00:00", "meta": {"OBJECT_NAME": "COSMOS 2251 DEB", "OBJECT_ID": "1993-036BHS", "EPOCH": "2025-12-04T09:26:36.152736", "MEAN_MOTION": 14.15029915, "ECCENTRICITY": 0.029998, "INCLINATION": 73.7864, "RA_OF_ASC_NODE": 4.3592, "ARG_OF_PERICENTER": 188.2556, "MEAN_ANOMALY": 234.4903, "EPHEMERIS_TYPE": 0, "CLASSIFICATION_TYPE": "U", "NORAD_CAT_ID": 37278, "ELEMENT_SET_NO": 999, "REV_AT_EPOCH": 63711, "BSTAR": 0.0023061, "MEAN_MOTION_DOT": 6.884e-05, "MEAN_MOTION_DDOT": 0}, "tle": {"line1": "1 37278U 93036BHS 25338.39347399  .00006884  00000+0  23061-2 0  9995", "line2": "2 37278  73.7864   4.3592 0299980 188.2556 234.4903 14.15029915637119"}}, "geometry": {"type": "Point", "coordinates": [71.83844194597906, 72.99597341926362]}}, {"type": "Feature", "properties": {"norad_id": 37280, "name": "COSMOS 2251 DEB", "group": "cosmos-2251-debris", "lat": -46.982405070956005, "lon": 49.561774167329204, "alt_km": 870.9002849704084, "timestamp": "2025-12-06T22:38:43.126616+00:00", "meta": {"OBJECT_NAME": "COSMOS 2251 DEB", "OBJECT_ID": "1993-036BHU", "EPOCH": "2025-12-05T23:11:54.105216", "MEAN_MOTION": 14.19236446, "ECCENTRICITY": 0.01316124, "INCLINATION": 74.0322, "RA_OF_ASC_NODE": 69.1767, "ARG_OF_PERICENTER": 199.164, "MEAN_ANOMALY": 160.4529, "EPHEMERIS_TYPE": 0, "CLASSIFICATION_TYPE": "U", "NORAD_CAT_ID": 37280, "ELEMENT_SET_NO": 999, "REV_AT_EPOCH": 57227, "BSTAR": 0.0030955091, "MEAN_MOTION_DOT": 7.056e-05, "MEAN_MOTION_DDOT": 0}, "tle": {"line1": "1 37280U 93036BHU 25339.96659844  .00007056  00000+0  30955-2 0  9995", "line2": "2 37280  74.0322  69.1767 0131612 199.1640 160.4529 14.19236446572270"}}, "geometry": {"type": "Point", "coordinates": [49.561774167329204, -46.982405070956005]}}, {"type": "Feature", "properties": {"norad_id": 37284, "name": "COSMOS 2251 DEB", "group": "cosmos-2251-debris", "lat": 73.87497924307907, "lon": -110.41504835791575, "alt_km": 912.9329674620631, "timestamp": "2025-12-06T22:38:43.126626+00:00", "meta": {"OBJECT_NAME": "COSMOS 2251 DEB", "OBJECT_ID": "1993-036BHY", "EPOCH": "2025-12-05T19:06:47.225088", "MEAN_MOTION": 14.12657303, "ECCENTRICITY": 0.01604408, "INCLINATION": 74.0121, "RA_OF_ASC_NODE": 169.0185, "ARG_OF_PERICENTER": 322.3384, "MEAN_ANOMALY": 52.3924, "EPHEMERIS_TYPE": 0, "CLASSIFICATION_TYPE": "U", "NORAD_CAT_ID": 37284, "ELEMENT_SET_NO": 999, "REV_AT_EPOCH": 59077, "BSTAR": 0.001984473, "MEAN_MOTION_DOT": 4.13e-05, "MEAN_MOTION_DDOT": 0}, "tle": {"line1": "1 37284U 93036BHY 25339.79637992  .00004130  00000+0  19845-2 0  9995", "line2": "2 37284  74.0121 169.0185 0160440 322.3384  52.3924 14.12657303590776"}}, "geometry": {"type": "Point", "coordinates": [-110.41504835791575, 73.87497924307907]}}, {"type": "Feature", "properties": {"norad_id": 37292, "name": "COSMOS 2251 DEB", "group": "cosmos-2251-debris", "lat": 41.43750552381493, "lon": 74.35011663744902, "alt_km": 735.8315625991372, "timestamp": "2025-12-06T22:38:43.126636+00:00", "meta": {"OBJECT_NAME": "COSMOS 2251 DEB", "OBJECT_ID": "1993-036BJG", "EPOCH": "2025-12-02T14:04:30.366912", "MEAN_MOTION": 14.03226454, "ECCENTRICITY": 0.02102512, "INCLINATION": 74.129, "RA_OF_ASC_NODE": 67.3453, "ARG_OF_PERICENTER": 73.1105, "MEAN_ANOMALY": 289.2966, "EPHEMERIS_TYPE": 0, "CLASSIFICATION_TYPE": "U", "NORAD_CAT_ID": 37292, "ELEMENT_SET_NO": 999, "REV_AT_EPOCH": 59706, "BSTAR": 0.0022453288, "MEAN_MOTION_DOT": 4.236e-05, "MEAN_MOTION_DDOT": 0}, "tle": {"line1": "1 37292U 93036BJG 25336.58646258  .00004236  00000+0  22453-2 0  9999", "line2": "2 37292  74.1290  67.3453 0210251  73.1105 289.2966 14.03226454597064"}}, "geometry": {"type": "Point", "coordinates": [74.35011663744902, 41.43750552381493]}}, {"type": "Feature", "properties": {"norad_id": 37295, "name": "COSMOS 2251 DEB", "group": "cosmos-2251-debris", "lat": 66.06583948914775, "lon": 72.54616352960454, "alt_km": 639.0252997616726, "timestamp": "2025-12-06T22:38:43.126646+00:00", "meta": {"OBJECT_NAME": "COSMOS 2251 DEB", "OBJECT_ID": "1993-036BJK", "EPOCH": "2025-12-06T07:24:27.976032", "MEAN_MOTION": 14.65177663, "ECCENTRICITY": 0.00436801, "INCLINATION": 74.0075, "RA_OF_ASC_NODE": 294.0211, "ARG_OF_PERICENTER": 115.2247, "MEAN_ANOMALY": 245.346, "EPHEMERIS_TYPE": 0, "CLASSIFICATION_TYPE": "U", "NORAD_CAT_ID": 37295, "ELEMENT_SET_NO": 999, "REV_AT_EPOCH": 82210, "BSTAR": 0.0010871987, "MEAN_MOTION_DOT": 5.905e-05, "MEAN_MOTION_DDOT": 0}, "tle": {"line1": "1 37295U 93036BJK 25340.30865713  .00005905  00000+0  10872-2 0  9992", "line2": "2 37295  74.0075 294.0211 0043680 115.2247 245.3460 14.65177663822106"}}, "geometry": {"type": "Point", "coordinates": [72.54616352960454, 66.06583948914775]}}, {"type": "Feature", "properties": {"norad_id": 37305, "name": "COSMOS 2251 DEB", "group": "cosmos-2251-debris", "lat": 42.0686786477361, "lon": 106.13126076600955, "alt_km": 789.0363515648414, "timestamp": "2025-12-06T22:38:43.126656+00:00", "meta": {"OBJECT_NAME": "COSMOS 2251 DEB", "OBJECT_ID": "1993-036BJV", "EPOCH": "2025-12-01T04:54:57.845088", "MEAN_MOTION": 14.36058989, "ECCENTRICITY": 0.0050534, "INCLINATION": 73.8694, "RA_OF_ASC_NODE": 311.9126, "ARG_OF_PERICENTER": 273.9871, "MEAN_ANOMALY": 85.5504, "EPHEMERIS_TYPE": 0, "CLASSIFICATION_TYPE": "U", "NORAD_CAT_ID": 37305, "ELEMENT_SET_NO": 999, "REV_AT_EPOCH": 66701, "BSTAR": 0.00088749, "MEAN_MOTION_DOT": 2.593e-05, "MEAN_MOTION_DDOT": 0}, "tle": {"line1": "1 37305U 93036BJV 25335.20483617  .00002593  00000+0  88749-3 0  9995", "line2": "2 37305  73.8694 311.9126 0050534 273.9871  85.5504 14.36058989667014"}}, "geometry": {"type": "Point", "coordinates": [106.13126076600955, 42.0686786477361]}}, {"type": "Feature", "properties": {"norad_id": 37312, "name": "COSMOS 2251 DEB", "group": "cosmos-2251-debris", "lat": -28.29314762815026, "lon": -153.86449990857244, "alt_km": 731.2864899928372, "timestamp": "2025-12-06T22:38:43.126666+00:00", "meta": {"OBJECT_NAME": "COSMOS 2251 DEB", "OBJECT_ID": "1993-036BKC", "EPOCH": "2025-12-03T01:48:10.090656", "MEAN_MOTION": 14.46074055, "ECCENTRICITY": 0.00181668, "INCLINATION": 74.0321, "RA_OF_ASC_NODE": 222.2189, "ARG_OF_PERICENTER": 326.4091, "MEAN_ANOMALY": 33.5914, "EPHEMERIS_TYPE": 0, "CLASSIFICATION_TYPE": "U", "NORAD_CAT_ID": 37312, "ELEMENT_SET_NO": 999, "REV_AT_EPOCH": 86024, "BSTAR": 0.00063141036, "MEAN_MOTION_DOT": 2.231e-05, "MEAN_MOTION_DDOT": 0}, "tle": {"line1": "1 37312U 93036BKC 25337.07511679  .00002231  00000+0  63141-3 0  9998", "line2": "2 37312  74.0321 222.2189 0018166 326.4091  33.5914 14.46074055860249"}}, "geometry": {"type": "Point", "coordinates": [-153.86449990857244, -28.29314762815026]}}, {"type": "Feature", "properties": {"norad_id": 37316, "name": "COSMOS 2251 DEB", "group": "cosmos-2251-debris", "lat": -60.41772568587043, "lon": -116.92112024159036, "alt_km": 607.566258614509, "timestamp": "2025-12-06T22:38:43.126677+00:00", "meta": {"OBJECT_NAME": "COSMOS 2251 DEB", "OBJECT_ID": "1993-036BKG", "EPOCH": "2025-12-05T10:12:05.972832", "MEAN_MOTION": 14.94025894, "ECCENTRICITY": 0.00294181, "INCLINATION": 74.0201, "RA_OF_ASC_NODE": 35.8201, "ARG_OF_PERICENTER": 107.6096, "MEAN_ANOMALY": 252.8305, "EPHEMERIS_TYPE": 0, "CLASSIFICATION_TYPE": "U", "NORAD_CAT_ID": 37316, "ELEMENT_SET_NO": 999, "REV_AT_EPOCH": 86034, "BSTAR": 0.0040342984, "MEAN_MOTION_DOT": 0.00043645, "MEAN_MOTION_DDOT": 0}, "tle": {"line1": "1 37316U 93036BKG 25339.42506913  .00043645  00000+0  40343-2 0  9990", "line2": "2 37316  74.0201  35.8201 0029418 107.6096 252.8305 14.94025894860340"}}, "geometry": {"type": "Point", "coordinates": [-116.92112024159036, -60.41772568587043]}}, {"type": "Feature", "properties": {"norad_id": 37320, "name": "COSMOS 2251 DEB", "group": "cosmos-2251-debris", "lat": -15.29250634928719, "lon": -134.93540788000553, "alt_km": 608.4241908367958, "timestamp": "2025-12-06T22:38:43.126686+00:00", "meta": {"OBJECT_NAME": "COSMOS 2251 DEB", "OBJECT_ID": "1993-036BKL", "EPOCH": "2025-12-05T01:15:03.541248", "MEAN_MOTION": 14.78626026, "ECCENTRICITY": 0.00469911, "INCLINATION": 74.0466, "RA_OF_ASC_NODE": 233.2644, "ARG_OF_PERICENTER": 321.7897, "MEAN_ANOMALY": 37.995, "EPHEMERIS_TYPE": 0, "CLASSIFICATION_TYPE": "U", "NORAD_CAT_ID": 37320, "ELEMENT_SET_NO": 999, "REV_AT_EPOCH": 66033, "BSTAR": 0.0020531789, "MEAN_MOTION_DOT": 0.00015318, "MEAN_MOTION_DDOT": 0}, "tle": {"line1": "1 37320U 93036BKL 25339.05212432  .00015318  00000+0  20532-2 0  9998", "line2": "2 37320  74.0466 233.2644 0046991 321.7897  37.9950 14.78626026660337"}}, "geometry": {"type": "Point", "coordinates": [-134.93540788000553, -15.29250634928719]}}, {"type": "Feature", "properties": {"norad_id": 37326, "name": "COSMOS 2251 DEB", "group": "cosmos-2251-debris", "lat": -8.358482196175999, "lon": 168.20185915725045, "alt_km": 679.7271587108798, "timestamp": "2025-12-06T22:38:43.126696+00:00", "meta": {"OBJECT_NAME": "COSMOS 2251 DEB", "OBJECT_ID": "1993-036BKS", "EPOCH": "2025-12-06T08:38:53.747520", "MEAN_MOTION": 14.61529369, "ECCENTRICITY": 0.0054881, "INCLINATION": 74.0256, "RA_OF_ASC_NODE": 346.9056, "ARG_OF_PERICENTER": 117.8118, "MEAN_ANOMALY": 242.8627, "EPHEMERIS_TYPE": 0, "CLASSIFICATION_TYPE": "U", "NORAD_CAT_ID": 37326, "ELEMENT_SET_NO": 999, "REV_AT_EPOCH": 85390, "BSTAR": 0.0009294412, "MEAN_MOTION_DOT": 4.685e-05, "MEAN_MOTION_DDOT": 0}, "tle": {"line1": "1 37326U 93036BKS 25340.36034430  .00004685  00000+0  92944-3 0  9992", "line2": "2 37326  74.0256 346.9056 0054881 117.8118 242.8627 14.61529369853905"}}, "geometry": {"type": "Point", "coordinates": [168.20185915725045, -8.358482196175999]}}]}